******************************************************************************* Revised: Jul 31, 2013              Mercury                             199 / 1 GEOPHYSICAL DATA (updated 2008-Feb-07):  Mean radius (km)      =  2440(+-1)     Density (g cm^-3)     =  5.427  Mass (10^23 kg )      =     3.302      Flattening, f         =    Volume (x10^10 km^3)  =     6.085      Semi-major axis       =   Sidereal rot. period  =    58.6462 d   Rot. Rate (x10^5 s)   =  0.124001  Mean solar day        =   175.9421 d   Polar gravity ms^-2   =  Mom. of Inertia       =     0.33       Equ. gravity  ms^-2   =  3.701       Core radius (km)      = ~1600          Potential Love # k2   =  GM (km^3 s^-2)        = 22032.09       Equatorial Radius, Re =    2440 km  GM 1-sigma (km^3 s^-2)=   +-0.91       Mass ratio (sun/plnt) = 6023600   Atmos. pressure (bar) =                Max. angular diam.    = 11.0"     Mean Temperature (K)  =                Visual mag. V(1,0)    = -0.42   Geometric albedo      =   0.106        Obliquity to orbit[1] = 2.11' +/- 0.1'    Sidereal orb. per.    =   0.2408467 y  Mean Orbit vel.  km/s = 47.362   Sidereal orb. per.    =  87.969257  d  Escape vel. km/s      =  4.435  Hill's sphere rad. Rp =  94.4          Planetary Solar Const = 9936.9 (Wm^2)[1] Margot et al., Science 316, 2007*******************************************************************************  *******************************************************************************Ephemeris / WWW_USER Tue Sep  2 11:23:59 2014 Pasadena, USA      / Horizons    *******************************************************************************Target body name: Mercury (199)                   {source: DE-0431LE-0431}Center body name: Solar System Barycenter (0)     {source: DE-0431LE-0431}Center-site name: BODY CENTER*******************************************************************************Start time      : A.D. 2012-Jan-01 00:00:00.0000 CT Stop  time      : A.D. 2012-Jan-02 00:00:00.0000 CT Step-size       : 60 minutes*******************************************************************************Center geodetic : 0.00000000,0.00000000,0.0000000 {E-lon(deg),Lat(deg),Alt(km)}Center cylindric: 0.00000000,0.00000000,0.0000000 {E-lon(deg),Dxy(km),Dz(km)}Center radii    : (undefined)                                                  Output units    : AU-D                                                         Output format   : 03Reference frame : ICRF/J2000.0                                                 Output type     : GEOMETRIC cartesian statesCoordinate systm: Ecliptic and Mean Equinox of Reference Epoch                 *******************************************************************************JDCT    X     Y     Z   VX    VY    VZ   LT    RG    RR*******************************************************************************$$SOE2455927.500000000 = A.D. 2012-Jan-01 00:00:00.0000 (CT)  -3.824910136306806E-01 -1.955726970983496E-01  1.892636729513723E-02   7.029877232073710E-03 -2.381780630507413E-02 -2.590380938292469E-03   2.483514940947190E-03  4.300072821912889E-01  4.465555185476257E-032455927.541666667 = A.D. 2012-Jan-01 01:00:00.0000 (CT)  -3.821968474302391E-01 -1.965644618347152E-01  1.881837224323429E-02   7.090079441957903E-03 -2.378688155988807E-02 -2.593378039383053E-03   2.484588441799476E-03  4.301931531020334E-01  4.456245746040557E-032455927.583333333 = A.D. 2012-Jan-01 02:00:00.0000 (CT)  -3.819001754226478E-01 -1.975549356081932E-01  1.871025275105088E-02   7.150155978492634E-03 -2.375584016404720E-02 -2.596354078389781E-03   2.485659700360346E-03  4.303786357720544E-01  4.446919645465406E-032455927.625000000 = A.D. 2012-Jan-01 03:00:00.0000 (CT)  -3.816010028438862E-01 -1.985441135680239E-01  1.860200969534496E-02   7.210106861508319E-03 -2.372468258208373E-02 -2.599309095087028E-03   2.486728712630965E-03  4.305637295089750E-01  4.437576971869751E-032455927.666666667 = A.D. 2012-Jan-01 04:00:00.0000 (CT)  -3.812993349290891E-01 -1.995319908827634E-01  1.849364395121875E-02   7.269932111725592E-03 -2.369340927660859E-02 -2.602243129173869E-03   2.487795474633652E-03  4.307484336240810E-01  4.428217812953104E-032455927.708333333 = A.D. 2012-Jan-01 05:00:00.0000 (CT)  -3.809951769125094E-01 -2.005185627402031E-01  1.838515639212192E-02   7.329631750743953E-03 -2.366202070831768E-02 -2.605156220273555E-03   2.488859982411780E-03  4.309327474323040E-01  4.418842255997368E-032455927.750000000 = A.D. 2012-Jan-01 06:00:00.0000 (CT)  -3.806885340274821E-01 -2.015038243472903E-01  1.827654788985481E-02   7.389205801030481E-03 -2.363051733599805E-02 -2.608048407932967E-03   2.489922232029680E-03  4.311166702522035E-01  4.409450387868706E-032455927.791666667 = A.D. 2012-Jan-01 07:00:00.0000 (CT)  -3.803794115063880E-01 -2.024877709300490E-01  1.816781931457150E-02   7.448654285908667E-03 -2.359889961653418E-02 -2.610919731622133E-03   2.490982219572532E-03  4.313002014059499E-01  4.400042295019387E-032455927.833333333 = A.D. 2012-Jan-01 08:00:00.0000 (CT)  -3.800678145806184E-01 -2.034703977335003E-01  1.805897153478317E-02   7.507977229547317E-03 -2.356716800491418E-02 -2.613770230733684E-03   2.492039941146274E-03  4.314833402193071E-01  4.390618063489631E-032455927.875000000 = A.D. 2012-Jan-01 09:00:00.0000 (CT)  -3.797537484805405E-01 -2.044517000215836E-01  1.795000541736120E-02   7.567174656949537E-03 -2.353532295423611E-02 -2.616599944582379E-03   2.493095392877498E-03  4.316660860216153E-01  4.381177778909449E-032455927.916666667 = A.D. 2012-Jan-01 10:00:00.0000 (CT)  -3.794372184354621E-01 -2.054316730770785E-01  1.784092182754052E-02   7.626246593941812E-03 -2.350336491571416E-02 -2.619408912404601E-03   2.494148570913355E-03  4.318484381457743E-01  4.371721526500492E-032455927.958333333 = A.D. 2012-Jan-01 11:00:00.0000 (CT)  -3.791182296735981E-01 -2.064103122015258E-01  1.773172162892285E-02   7.685193067163172E-03 -2.347129433868499E-02 -2.622197173357888E-03   2.495199471421454E-03  4.320303959282263E-01  4.362249391077861E-032455928.000000000 = A.D. 2012-Jan-01 12:00:00.0000 (CT)  -3.787967874220367E-01 -2.073876127151497E-01  1.762240568347998E-02   7.744014104054431E-03 -2.343911167061394E-02 -2.624964766520442E-03   2.496248090589768E-03  4.322119587089391E-01  4.352761457051965E-032455928.041666667 = A.D. 2012-Jan-01 13:00:00.0000 (CT)  -3.784728969067064E-01 -2.083635699567800E-01  1.751297485155712E-02   7.802709732847531E-03 -2.340681735710137E-02 -2.627711730890682E-03   2.497294424626532E-03  4.323931258313893E-01  4.343257808430321E-032455928.083333333 = A.D. 2012-Jan-01 14:00:00.0000 (CT)  -3.781465633523426E-01 -2.093381792837744E-01  1.740342999187620E-02   7.861279982554941E-03 -2.337441184188888E-02 -2.630438105386770E-03   2.498338469760150E-03  4.325738966425449E-01  4.333738528819395E-032455928.125000000 = A.D. 2012-Jan-01 15:00:00.0000 (CT)  -3.778177919824564E-01 -2.103114360719409E-01  1.729377196153924E-02   7.919724882959174E-03 -2.334189556686568E-02 -2.633143928846169E-03   2.499380222239097E-03  4.327542704928496E-01  4.324203701426401E-032455928.166666667 = A.D. 2012-Jan-01 16:00:00.0000 (CT)  -3.774865880193014E-01 -2.112833357154617E-01  1.718400161603175E-02   7.978044464602345E-03 -2.330926897207483E-02 -2.635829240025198E-03   2.500419678331825E-03  4.329342467362060E-01  4.314653409061147E-032455928.208333333 = A.D. 2012-Jan-01 17:00:00.0000 (CT)  -3.771529566838436E-01 -2.122538736268152E-01  1.707411980922607E-02   8.036238758775857E-03 -2.327653249571954E-02 -2.638494077598614E-03   2.501456834326664E-03  4.331138247299582E-01  4.305087734137779E-032455928.250000000 = A.D. 2012-Jan-01 18:00:00.0000 (CT)  -3.768169031957294E-01 -2.132230452367003E-01  1.696412739338478E-02   8.094307797510128E-03 -2.324368657416951E-02 -2.641138480159149E-03   2.502491686531732E-03  4.332930038348768E-01  4.295506758676666E-032455928.291666667 = A.D. 2012-Jan-01 19:00:00.0000 (CT)  -3.764784327732553E-01 -2.141908459939600E-01  1.685402521916419E-02   8.152251613564422E-03 -2.321073164196722E-02 -2.643762486217141E-03   2.503524231274835E-03  4.334717834151411E-01  4.285910564306136E-032455928.333333333 = A.D. 2012-Jan-01 20:00:00.0000 (CT)  -3.761375506333382E-01 -2.151572713655049E-01  1.674381413561770E-02   8.210070240416758E-03 -2.317766813183423E-02 -2.646366134200082E-03   2.504554464903377E-03  4.336501628383237E-01  4.276299232264299E-032455928.375000000 = A.D. 2012-Jan-01 21:00:00.0000 (CT)  -3.757942619914850E-01 -2.161223168362383E-01  1.663349499019930E-02   8.267763712253883E-03 -2.314449647467752E-02 -2.648949462452236E-03   2.505582383784265E-03  4.338281414753741E-01  4.266672843400841E-032455928.416666667 = A.D. 2012-Jan-01 22:00:00.0000 (CT)  -3.754485720617636E-01 -2.170859779089800E-01  1.652306862876706E-02   8.325332063961355E-03 -2.311121709959579E-02 -2.651512509234242E-03   2.506607984303817E-03  4.340057187006024E-01  4.257031478178790E-032455928.458333333 = A.D. 2012-Jan-01 23:00:00.0000 (CT)  -3.751004860567740E-01 -2.180482501043912E-01  1.641253589558660E-02   8.382775331113663E-03 -2.307783043388580E-02 -2.654055312722711E-03   2.507631262867664E-03  4.341828938916631E-01  4.247375216676327E-032455928.500000000 = A.D. 2012-Jan-02 00:00:00.0000 (CT)  -3.747500091876197E-01 -2.190091289609001E-01  1.630189763333459E-02   8.440093549964471E-03 -2.304433690304864E-02 -2.656577911009877E-03   2.508652215900665E-03  4.343596664295397E-01  4.237704138588530E-03$$EOE*******************************************************************************Coordinate system description:  Ecliptic and Mean Equinox of Reference Epoch    Reference epoch: J2000.0    xy-plane: plane of the Earth's orbit at the reference epoch    x-axis  : out along ascending node of instantaneous plane of the Earth's              orbit and the Earth's mean equator at the reference epoch    z-axis  : perpendicular to the xy-plane in the directional (+ or -) sense              of Earth's north pole at the reference epoch.Symbol meaning [1 au=149597870.700 km, 1 day=86400.0 s]:    JDCT     Epoch Julian Date, Coordinate Time      X      x-component of position vector (AU)                                     Y      y-component of position vector (AU)                                     Z      z-component of position vector (AU)                                     VX     x-component of velocity vector (AU/day)                                 VY     y-component of velocity vector (AU/day)                                 VZ     z-component of velocity vector (AU/day)                                 LT     One-way down-leg Newtonian light-time (day)                             RG     Range; distance from coordinate center (AU)                             RR     Range-rate; radial velocity wrt coord. center (AU/day)            Geometric states/elements have no aberration corrections applied. Computations by ...     Solar System Dynamics Group, Horizons On-Line Ephemeris System     4800 Oak Grove Drive, Jet Propulsion Laboratory     Pasadena, CA  91109   USA     Information: http://ssd.jpl.nasa.gov/     Connect    : telnet://ssd.jpl.nasa.gov:6775  (via browser)                  telnet ssd.jpl.nasa.gov 6775    (via command-line)     Author     : Jon.Giorgini@jpl.nasa.gov*******************************************************************************